LUDI TANCE-4 01A        
1 57624U 23120A   26038.42808245 -.00000175  00000+0  00000+0 0  9996
2 57624  15.1945 197.1726 0005880  95.2983  88.8087  1.00274307  9249
HEAD-3A                 
1 57626U 23121A   26038.93844994  .00000683  00000+0  17217-3 0  9991
2 57626  45.0001 227.1617 0006742 325.7099  34.3322 14.60435302132683
HEAD-3B                 
1 57627U 23121B   26038.89501786  .00000722  00000+0  17678-3 0  9991
2 57627  45.0010 221.4784 0005498 313.7672  46.2730 14.61331654132756
HEAD-3C                 
1 57628U 23121C   26038.91020240  .00000758  00000+0  18146-3 0  9996
2 57628  44.9982 216.5560 0005939 312.5986  47.4370 14.62002221132811
HEAD-3D                 
1 57629U 23121D   26038.92804478  .00000745  00000+0  17645-3 0  9990
2 57629  45.0023 212.3980 0007177 309.7447  50.2778 14.62662641132874
HEAD-3E                 
1 57630U 23121E   26038.89855711  .00000907  00000+0  20404-3 0  9991
2 57630  45.0015 206.5400 0007683 300.3935  59.6163 14.63583679132943
STARLINK-30309          
1 57632U 23122A   26038.01981129  .00000788  00000+0  73364-4 0  9992
2 57632  43.0023 261.6866 0001326 266.3155  93.7536 15.02541620137563
STARLINK-30306          
1 57633U 23122B   26037.95000915  .00001863  00000+0  15290-3 0  9998
2 57633  43.0006 262.0240 0001280 267.7972  92.2723 15.02539887137550
STARLINK-30323          
1 57634U 23122C   26037.94464670 -.00000195  00000+0  64158-6 0  9998
2 57634  43.0023 248.3970 0000725 264.5873  95.4887 15.02530715137710
STARLINK-30329          
1 57635U 23122D   26037.01598544  .00001520  00000+0  12751-3 0  9996
2 57635  43.0034 267.0551 0001103 272.4916  87.5800 15.02542547137413
STARLINK-30330          
1 57636U 23122E   26038.00980278  .00002813  00000+0  22312-3 0  9996
2 57636  43.0031 261.6119 0001080 258.6357 101.4364 15.02555475137561
STARLINK-30311          
1 57637U 23122F   26038.00316960  .00000953  00000+0  85614-4 0  9996
2 57637  43.0029 261.5614 0001246 255.8889 104.1815 15.02536495137563
STARLINK-30328          
1 57638U 23122G   26036.95412075  .00001010  00000+0  89805-4 0  9994
2 57638  43.0028 253.8041 0000941 261.3536  98.7200 15.02538404137572
STARLINK-30326          
1 57639U 23122H   26038.03301617  .00000434  00000+0  47222-4 0  9991
2 57639  43.0025 260.9167 0001172 268.4576  91.6132 15.02538900137574
STARLINK-30324          
1 57640U 23122J   26037.99651279  .00002225  00000+0  17962-3 0  9996
2 57640  43.0013 261.5121 0001006 276.5831  83.4897 15.02550845137568
STARLINK-30312          
1 57641U 23122K   26037.99320226  .00000582  00000+0  58130-4 0  9999
2 57641  43.0011 261.4883 0001242 260.1516  99.9186 15.02524813137561
STARLINK-30263          
1 57642U 23122L   26037.98652726 -.00000668  00000+0 -34416-4 0  9990
2 57642  43.0023 261.4372 0000999 264.2054  95.8674 15.02529447137563
STARLINK-30280          
1 57643U 23122M   26037.97653110  .00000906  00000+0  82126-4 0  9992
2 57643  43.0018 261.3593 0001217 273.4771  86.5932 15.02539246137566
STARLINK-30247          
1 57644U 23122N   26037.97985500  .00000715  00000+0  67959-4 0  9999
2 57644  43.0030 261.3868 0001353 257.7831 102.2860 15.02538790137568
STARLINK-30277          
1 57645U 23122P   26038.26228405 -.00003709  00000+0 -12539-3 0  9998
2 57645  43.0069 122.2419 0002971 283.5164  76.5356 15.27550938139224
STARLINK-30265          
1 57646U 23122Q   26037.92339391 -.00001043  00000+0 -62171-4 0  9995
2 57646  43.0021 261.8249 0001106 264.6559  95.4157 15.02526022137554
STARLINK-30286          
1 57647U 23122R   26036.97603006  .00000811  00000+0  75079-4 0  9998
2 57647  43.0021 266.7565 0001124 269.1165  90.9548 15.02539636137417
STARLINK-30243          
1 57648U 23122S   26038.95705241 -.00001320  00000+0 -82684-4 0  9991
2 57648  43.0025 255.8179 0001223 273.1013  86.9689 15.02525305137711
STARLINK-30299          
1 57650U 23122U   26038.70113512 -.00000548  00000+0 -25485-4 0  9998
2 57650  43.0028 257.3377 0001054 266.1753  93.8969 15.02531186137676
STARLINK-30294          
1 57651U 23122V   26038.96066148  .00001439  00000+0  12154-3 0  9995
2 57651  43.0000 243.1289 0001014 261.8402  98.2325 15.02545227137868
STARLINK-30276          
1 57652U 23122W   26038.96038776 -.00016137  00000+0 -11800-2 0  9991
2 57652  43.0033 255.8398 0002395 272.7931  87.2637 15.02603793137718
STARLINK-30289          
1 57653U 23122X   26036.03897604 -.00000119  00000+0  62269-5 0  9991
2 57653  43.0021 258.9972 0001143 264.4101  95.6611 15.02533071137429
GAOFEN-12 04            
1 57654U 23123A   26038.94460495  .00001680  00000+0  22942-3 0  9994
2 57654  97.9134 318.8465 0001661  89.4360 270.7042 14.79911958133510
STARLINK-30267          
1 57663U 23124A   26038.24658752  .00004480  00000+0  16319-3 0  9995
2 57663  53.1620 348.4292 0001758 111.7062 248.4126 15.30225161138901
STARLINK-30298          
1 57665U 23124C   26038.11810131  .00003149  00000+0  11838-3 0  9996
2 57665  53.1615 349.0682 0001255 117.4625 242.6504 15.30203019138888
