OBJECT_NAME,OBJECT_ID,EPOCH,MEAN_MOTION,ECCENTRICITY,INCLINATION,RA_OF_ASC_NODE,ARG_OF_PERICENTER,MEAN_ANOMALY,EPHEMERIS_TYPE,CLASSIFICATION_TYPE,NORAD_CAT_ID,ELEMENT_SET_NO,REV_AT_EPOCH,BSTAR,MEAN_MOTION_DOT,MEAN_MOTION_DDOT
LUDI TANCE-4 01A,2023-120A,2026-02-07T10:16:26.323680,1.00274307,.00058802,15.1945,197.1726,95.2983,88.8087,0,U,57624,999,924,0,-.175E-5,0
HEAD-3A,2023-121A,2026-02-07T22:31:22.074816,14.60435302,.00067426,45.0001,227.1617,325.7099,34.3322,0,U,57626,999,13268,.17217151E-3,.683E-5,0
HEAD-3B,2023-121B,2026-02-07T21:28:49.543104,14.61331654,.00054983,45.0010,221.4784,313.7672,46.2730,0,U,57627,999,13275,.17677537E-3,.722E-5,0
HEAD-3C,2023-121C,2026-02-07T21:50:41.487360,14.62002221,.00059391,44.9982,216.5560,312.5986,47.4370,0,U,57628,999,13281,.18145776E-3,.758E-5,0
HEAD-3D,2023-121D,2026-02-07T22:16:23.068992,14.62662641,.00071776,45.0023,212.3980,309.7447,50.2778,0,U,57629,999,13287,.17645159E-3,.745E-5,0
HEAD-3E,2023-121E,2026-02-07T21:33:55.334304,14.63583679,.00076836,45.0015,206.5400,300.3935,59.6163,0,U,57630,999,13294,.20404365E-3,.907E-5,0
STARLINK-30309,2023-122A,2026-02-07T00:28:31.695456,15.02541620,.0001326,43.0023,261.6866,266.3155,93.7536,0,U,57632,999,13756,.73363739E-4,.788E-5,0
STARLINK-30306,2023-122B,2026-02-06T22:48:00.790560,15.02539887,.00012809,43.0006,262.0240,267.7972,92.2723,0,U,57633,999,13755,.15289505E-3,.1863E-4,0
STARLINK-30323,2023-122C,2026-02-06T22:40:17.474880,15.02530715,.00007258,43.0023,248.3970,264.5873,95.4887,0,U,57634,999,13771,.641576E-6,-.195E-5,0
STARLINK-30329,2023-122D,2026-02-06T00:23:01.142016,15.02542547,.00011035,43.0034,267.0551,272.4916,87.5800,0,U,57635,999,13741,.12751457E-3,.152E-4,0
STARLINK-30330,2023-122E,2026-02-07T00:14:06.960192,15.02555475,.00010807,43.0031,261.6119,258.6357,101.4364,0,U,57636,999,13756,.22312284E-3,.2813E-4,0
STARLINK-30311,2023-122F,2026-02-07T00:04:33.853440,15.02536495,.00012466,43.0029,261.5614,255.8889,104.1815,0,U,57637,999,13756,.85614232E-4,.953E-5,0
STARLINK-30328,2023-122G,2026-02-05T22:53:56.032800,15.02538404,.0000941,43.0028,253.8041,261.3536,98.7200,0,U,57638,999,13757,.89805E-4,.101E-4,0
STARLINK-30326,2023-122H,2026-02-07T00:47:32.597088,15.02538900,.00011727,43.0025,260.9167,268.4576,91.6132,0,U,57639,999,13757,.47221913E-4,.434E-5,0
STARLINK-30324,2023-122J,2026-02-06T23:54:58.705056,15.02550845,.00010069,43.0013,261.5121,276.5831,83.4897,0,U,57640,999,13756,.17962241E-3,.2225E-4,0
STARLINK-30312,2023-122K,2026-02-06T23:50:12.675264,15.02524813,.00012421,43.0011,261.4883,260.1516,99.9186,0,U,57641,999,13756,.58129711E-4,.582E-5,0
STARLINK-30263,2023-122L,2026-02-06T23:40:35.955264,15.02529447,.00009998,43.0023,261.4372,264.2054,95.8674,0,U,57642,999,13756,-.34415708E-4,-.668E-5,0
STARLINK-30280,2023-122M,2026-02-06T23:26:12.287040,15.02539246,.0001217,43.0018,261.3593,273.4771,86.5932,0,U,57643,999,13756,.82126E-4,.906E-5,0
STARLINK-30247,2023-122N,2026-02-06T23:30:59.472000,15.02538790,.00013532,43.0030,261.3868,257.7831,102.2860,0,U,57644,999,13756,.67958808E-4,.715E-5,0
STARLINK-30277,2023-122P,2026-02-07T06:17:41.341920,15.27550938,.0002971,43.0069,122.2419,283.5164,76.5356,0,U,57645,999,13922,-.12539E-3,-.3709E-4,0
STARLINK-30265,2023-122Q,2026-02-06T22:09:41.233824,15.02526022,.0001106,43.0021,261.8249,264.6559,95.4157,0,U,57646,999,13755,-.62171E-4,-.1043E-4,0
STARLINK-30286,2023-122R,2026-02-05T23:25:28.997184,15.02539636,.00011242,43.0021,266.7565,269.1165,90.9548,0,U,57647,999,13741,.75079098E-4,.811E-5,0
STARLINK-30243,2023-122S,2026-02-07T22:58:09.328224,15.02525305,.00012238,43.0025,255.8179,273.1013,86.9689,0,U,57648,999,13771,-.82683858E-4,-.132E-4,0
STARLINK-30299,2023-122U,2026-02-07T16:49:38.074368,15.02531186,.00010545,43.0028,257.3377,266.1753,93.8969,0,U,57650,999,13767,-.25485065E-4,-.548E-5,0
STARLINK-30294,2023-122V,2026-02-07T23:03:21.151872,15.02545227,.00010143,43.0000,243.1289,261.8402,98.2325,0,U,57651,999,13786,.12154468E-3,.1439E-4,0
STARLINK-30276,2023-122W,2026-02-07T23:02:57.502464,15.02603793,.00023954,43.0033,255.8398,272.7931,87.2637,0,U,57652,999,13771,-.11800392E-2,-.16137E-3,0
STARLINK-30289,2023-122X,2026-02-05T00:56:07.529856,15.02533071,.00011432,43.0021,258.9972,264.4101,95.6611,0,U,57653,999,13742,.6226946E-5,-.119E-5,0
GAOFEN-12 04,2023-123A,2026-02-07T22:40:13.867680,14.79911958,.00016615,97.9134,318.8465,89.4360,270.7042,0,U,57654,999,13351,.22941882E-3,.168E-4,0
STARLINK-30267,2023-124A,2026-02-07T05:55:05.161728,15.30225161,.0001758,53.1620,348.4292,111.7062,248.4126,0,U,57663,999,13890,.16319E-3,.448E-4,0
STARLINK-30298,2023-124C,2026-02-07T02:50:03.953184,15.30203019,.0001255,53.1615,349.0682,117.4625,242.6504,0,U,57665,999,13888,.11838342E-3,.3149E-4,0
